[{"OBJECT_NAME":"STARLINK-5808","OBJECT_ID":"2023-083BD","EPOCH":"2026-03-09T22:00:01.999584","MEAN_MOTION":15.14004269,"ECCENTRICITY":0.00016373,"INCLINATION":42.9994,"RA_OF_ASC_NODE":337.5456,"ARG_OF_PERICENTER":220.5285,"MEAN_ANOMALY":42.6839,"EPHEMERIS_TYPE":0,"CLASSIFICATION_TYPE":"U","NORAD_CAT_ID":56927,"ELEMENT_SET_NO":999,"REV_AT_EPOCH":563,"BSTAR":0.0028761116,"MEAN_MOTION_DOT":0.00053329,"MEAN_MOTION_DDOT":0},{"OBJECT_NAME":"OBJECT B","OBJECT_ID":"2024-094B","EPOCH":"2026-03-09T23:16:02.635680","MEAN_MOTION":15.16281585,"ECCENTRICITY":0.00049641,"INCLINATION":97.3969,"RA_OF_ASC_NODE":142.4807,"ARG_OF_PERICENTER":78.7476,"MEAN_ANOMALY":281.4315,"EPHEMERIS_TYPE":0,"CLASSIFICATION_TYPE":"U","NORAD_CAT_ID":59806,"ELEMENT_SET_NO":999,"REV_AT_EPOCH":10012,"BSTAR":0.00045081306,"MEAN_MOTION_DOT":8.669e-5,"MEAN_MOTION_DDOT":0}]
